KUIPER-00008            
1 63724U 25088A   25262.40932235  .00004478  00000+0  38506-3 0  9997
2 63724  51.8901 147.9332 0010463 240.0164 119.9769 14.99160792 22361
KUIPER-00009            
1 63725U 25088B   25262.39220454 -.00000404  00000+0 -23612-4 0  9999
2 63725  51.9008 144.0811 0011705 254.0139 105.9534 14.79944304 22416
KUIPER-00010            
1 63726U 25088C   25262.58339120 -.00782447  00000+0 -33583-1 0  9991
2 63726  51.8723 125.7124 0010664 273.8968 165.4257 15.24672027  2901
KUIPER-00011            
1 63727U 25088D   25262.58339120 -.01097732  00000+0 -84452-1 0  9990
2 63727  51.8793 128.9361 0009153 267.8817 237.6970 15.04216526  4030
KUIPER-00012            
1 63728U 25088E   25262.58339120 -.00592792  00000+0 -28060-1 0  9999
2 63728  51.8741 126.2608 0009368 258.5925 194.8439 15.21127403  5785
KUIPER-00013            
1 63729U 25088F   25261.98603259  .00003534  00000+0  49331-3 0  9995
2 63729  51.9015 147.3423 0008124 177.1178 182.9833 14.79848419 22149
KUIPER-00014            
1 63730U 25088G   25262.38942975 -.00002101  00000+0 -24630-3 0  9999
2 63730  51.9020 146.5235 0007627 247.3516 112.6640 14.79939376 22006
KUIPER-00015            
1 63731U 25088H   25261.91828508 -.00002039  00000+0 -22962-3 0  9999
2 63731  51.8991 160.6165 0009967 226.1935 133.8204 14.81359415 22229
