<?xml version="1.0" encoding="UTF-8"?>
<ndm xmlns:xsi="http://www.w3.org/2001/XMLSchema-instance" xsi:noNamespaceSchemaLocation="https://sanaregistry.org/r/ndmxml_unqualified/ndmxml-2.0.0-master-2.0.xsd">
<omm id="CCSDS_OMM_VERS" version="2.0">
<header><CREATION_DATE/><ORIGINATOR/></header><body><segment><metadata><OBJECT_NAME>KUIPER-00008</OBJECT_NAME><OBJECT_ID>2025-088A</OBJECT_ID><CENTER_NAME>EARTH</CENTER_NAME><REF_FRAME>TEME</REF_FRAME><TIME_SYSTEM>UTC</TIME_SYSTEM><MEAN_ELEMENT_THEORY>SGP4</MEAN_ELEMENT_THEORY></metadata><data><meanElements><EPOCH>2025-09-19T09:49:25.451040</EPOCH><MEAN_MOTION>14.99160792</MEAN_MOTION><ECCENTRICITY>.00104634</ECCENTRICITY><INCLINATION>51.8901</INCLINATION><RA_OF_ASC_NODE>147.9332</RA_OF_ASC_NODE><ARG_OF_PERICENTER>240.0164</ARG_OF_PERICENTER><MEAN_ANOMALY>119.9769</MEAN_ANOMALY></meanElements><tleParameters><EPHEMERIS_TYPE>0</EPHEMERIS_TYPE><CLASSIFICATION_TYPE>U</CLASSIFICATION_TYPE><NORAD_CAT_ID>63724</NORAD_CAT_ID><ELEMENT_SET_NO>999</ELEMENT_SET_NO><REV_AT_EPOCH>2236</REV_AT_EPOCH><BSTAR>.38505664E-3</BSTAR><MEAN_MOTION_DOT>.4478E-4</MEAN_MOTION_DOT><MEAN_MOTION_DDOT>0</MEAN_MOTION_DDOT></tleParameters></data></segment></body></omm>
<omm id="CCSDS_OMM_VERS" version="2.0">
<header><CREATION_DATE/><ORIGINATOR/></header><body><segment><metadata><OBJECT_NAME>KUIPER-00009</OBJECT_NAME><OBJECT_ID>2025-088B</OBJECT_ID><CENTER_NAME>EARTH</CENTER_NAME><REF_FRAME>TEME</REF_FRAME><TIME_SYSTEM>UTC</TIME_SYSTEM><MEAN_ELEMENT_THEORY>SGP4</MEAN_ELEMENT_THEORY></metadata><data><meanElements><EPOCH>2025-09-19T09:24:46.472256</EPOCH><MEAN_MOTION>14.79944304</MEAN_MOTION><ECCENTRICITY>.00117058</ECCENTRICITY><INCLINATION>51.9008</INCLINATION><RA_OF_ASC_NODE>144.0811</RA_OF_ASC_NODE><ARG_OF_PERICENTER>254.0139</ARG_OF_PERICENTER><MEAN_ANOMALY>105.9534</MEAN_ANOMALY></meanElements><tleParameters><EPHEMERIS_TYPE>0</EPHEMERIS_TYPE><CLASSIFICATION_TYPE>U</CLASSIFICATION_TYPE><NORAD_CAT_ID>63725</NORAD_CAT_ID><ELEMENT_SET_NO>999</ELEMENT_SET_NO><REV_AT_EPOCH>2241</REV_AT_EPOCH><BSTAR>-.23611957E-4</BSTAR><MEAN_MOTION_DOT>-.404E-5</MEAN_MOTION_DOT><MEAN_MOTION_DDOT>0</MEAN_MOTION_DDOT></tleParameters></data></segment></body></omm>
<omm id="CCSDS_OMM_VERS" version="2.0">
<header><CREATION_DATE/><ORIGINATOR/></header><body><segment><metadata><OBJECT_NAME>KUIPER-00010</OBJECT_NAME><OBJECT_ID>2025-088C</OBJECT_ID><CENTER_NAME>EARTH</CENTER_NAME><REF_FRAME>TEME</REF_FRAME><TIME_SYSTEM>UTC</TIME_SYSTEM><MEAN_ELEMENT_THEORY>SGP4</MEAN_ELEMENT_THEORY></metadata><data><meanElements><EPOCH>2025-09-19T14:00:04.999680</EPOCH><MEAN_MOTION>15.24672027</MEAN_MOTION><ECCENTRICITY>.0010664</ECCENTRICITY><INCLINATION>51.8723</INCLINATION><RA_OF_ASC_NODE>125.7124</RA_OF_ASC_NODE><ARG_OF_PERICENTER>273.8968</ARG_OF_PERICENTER><MEAN_ANOMALY>165.4257</MEAN_ANOMALY></meanElements><tleParameters><EPHEMERIS_TYPE>0</EPHEMERIS_TYPE><CLASSIFICATION_TYPE>U</CLASSIFICATION_TYPE><NORAD_CAT_ID>63726</NORAD_CAT_ID><ELEMENT_SET_NO>999</ELEMENT_SET_NO><REV_AT_EPOCH>290</REV_AT_EPOCH><BSTAR>-.3358254E-1</BSTAR><MEAN_MOTION_DOT>-.782447E-2</MEAN_MOTION_DOT><MEAN_MOTION_DDOT>0</MEAN_MOTION_DDOT></tleParameters></data></segment></body></omm>
<omm id="CCSDS_OMM_VERS" version="2.0">
<header><CREATION_DATE/><ORIGINATOR/></header><body><segment><metadata><OBJECT_NAME>KUIPER-00011</OBJECT_NAME><OBJECT_ID>2025-088D</OBJECT_ID><CENTER_NAME>EARTH</CENTER_NAME><REF_FRAME>TEME</REF_FRAME><TIME_SYSTEM>UTC</TIME_SYSTEM><MEAN_ELEMENT_THEORY>SGP4</MEAN_ELEMENT_THEORY></metadata><data><meanElements><EPOCH>2025-09-19T14:00:04.999680</EPOCH><MEAN_MOTION>15.04216526</MEAN_MOTION><ECCENTRICITY>.00091539</ECCENTRICITY><INCLINATION>51.8793</INCLINATION><RA_OF_ASC_NODE>128.9361</RA_OF_ASC_NODE><ARG_OF_PERICENTER>267.8817</ARG_OF_PERICENTER><MEAN_ANOMALY>237.6970</MEAN_ANOMALY></meanElements><tleParameters><EPHEMERIS_TYPE>0</EPHEMERIS_TYPE><CLASSIFICATION_TYPE>U</CLASSIFICATION_TYPE><NORAD_CAT_ID>63727</NORAD_CAT_ID><ELEMENT_SET_NO>999</ELEMENT_SET_NO><REV_AT_EPOCH>403</REV_AT_EPOCH><BSTAR>-.84452224E-1</BSTAR><MEAN_MOTION_DOT>-.1097732E-1</MEAN_MOTION_DOT><MEAN_MOTION_DDOT>0</MEAN_MOTION_DDOT></tleParameters></data></segment></body></omm>
<omm id="CCSDS_OMM_VERS" version="2.0">
<header><CREATION_DATE/><ORIGINATOR/></header><body><segment><metadata><OBJECT_NAME>KUIPER-00012</OBJECT_NAME><OBJECT_ID>2025-088E</OBJECT_ID><CENTER_NAME>EARTH</CENTER_NAME><REF_FRAME>TEME</REF_FRAME><TIME_SYSTEM>UTC</TIME_SYSTEM><MEAN_ELEMENT_THEORY>SGP4</MEAN_ELEMENT_THEORY></metadata><data><meanElements><EPOCH>2025-09-19T14:00:04.999680</EPOCH><MEAN_MOTION>15.21127403</MEAN_MOTION><ECCENTRICITY>.00093681</ECCENTRICITY><INCLINATION>51.8741</INCLINATION><RA_OF_ASC_NODE>126.2608</RA_OF_ASC_NODE><ARG_OF_PERICENTER>258.5925</ARG_OF_PERICENTER><MEAN_ANOMALY>194.8439</MEAN_ANOMALY></meanElements><tleParameters><EPHEMERIS_TYPE>0</EPHEMERIS_TYPE><CLASSIFICATION_TYPE>U</CLASSIFICATION_TYPE><NORAD_CAT_ID>63728</NORAD_CAT_ID><ELEMENT_SET_NO>999</ELEMENT_SET_NO><REV_AT_EPOCH>578</REV_AT_EPOCH><BSTAR>-.2806048E-1</BSTAR><MEAN_MOTION_DOT>-.592792E-2</MEAN_MOTION_DOT><MEAN_MOTION_DDOT>0</MEAN_MOTION_DDOT></tleParameters></data></segment></body></omm>
<omm id="CCSDS_OMM_VERS" version="2.0">
<header><CREATION_DATE/><ORIGINATOR/></header><body><segment><metadata><OBJECT_NAME>KUIPER-00013</OBJECT_NAME><OBJECT_ID>2025-088F</OBJECT_ID><CENTER_NAME>EARTH</CENTER_NAME><REF_FRAME>TEME</REF_FRAME><TIME_SYSTEM>UTC</TIME_SYSTEM><MEAN_ELEMENT_THEORY>SGP4</MEAN_ELEMENT_THEORY></metadata><data><meanElements><EPOCH>2025-09-18T23:39:53.215776</EPOCH><MEAN_MOTION>14.79848419</MEAN_MOTION><ECCENTRICITY>.00081243</ECCENTRICITY><INCLINATION>51.9015</INCLINATION><RA_OF_ASC_NODE>147.3423</RA_OF_ASC_NODE><ARG_OF_PERICENTER>177.1178</ARG_OF_PERICENTER><MEAN_ANOMALY>182.9833</MEAN_ANOMALY></meanElements><tleParameters><EPHEMERIS_TYPE>0</EPHEMERIS_TYPE><CLASSIFICATION_TYPE>U</CLASSIFICATION_TYPE><NORAD_CAT_ID>63729</NORAD_CAT_ID><ELEMENT_SET_NO>999</ELEMENT_SET_NO><REV_AT_EPOCH>2214</REV_AT_EPOCH><BSTAR>.4933058E-3</BSTAR><MEAN_MOTION_DOT>.3534E-4</MEAN_MOTION_DOT><MEAN_MOTION_DDOT>0</MEAN_MOTION_DDOT></tleParameters></data></segment></body></omm>
<omm id="CCSDS_OMM_VERS" version="2.0">
<header><CREATION_DATE/><ORIGINATOR/></header><body><segment><metadata><OBJECT_NAME>KUIPER-00014</OBJECT_NAME><OBJECT_ID>2025-088G</OBJECT_ID><CENTER_NAME>EARTH</CENTER_NAME><REF_FRAME>TEME</REF_FRAME><TIME_SYSTEM>UTC</TIME_SYSTEM><MEAN_ELEMENT_THEORY>SGP4</MEAN_ELEMENT_THEORY></metadata><data><meanElements><EPOCH>2025-09-19T09:20:46.730400</EPOCH><MEAN_MOTION>14.79939376</MEAN_MOTION><ECCENTRICITY>.00076274</ECCENTRICITY><INCLINATION>51.9020</INCLINATION><RA_OF_ASC_NODE>146.5235</RA_OF_ASC_NODE><ARG_OF_PERICENTER>247.3516</ARG_OF_PERICENTER><MEAN_ANOMALY>112.6640</MEAN_ANOMALY></meanElements><tleParameters><EPHEMERIS_TYPE>0</EPHEMERIS_TYPE><CLASSIFICATION_TYPE>U</CLASSIFICATION_TYPE><NORAD_CAT_ID>63730</NORAD_CAT_ID><ELEMENT_SET_NO>999</ELEMENT_SET_NO><REV_AT_EPOCH>2200</REV_AT_EPOCH><BSTAR>-.24629754E-3</BSTAR><MEAN_MOTION_DOT>-.2101E-4</MEAN_MOTION_DOT><MEAN_MOTION_DDOT>0</MEAN_MOTION_DDOT></tleParameters></data></segment></body></omm>
<omm id="CCSDS_OMM_VERS" version="2.0">
<header><CREATION_DATE/><ORIGINATOR/></header><body><segment><metadata><OBJECT_NAME>KUIPER-00015</OBJECT_NAME><OBJECT_ID>2025-088H</OBJECT_ID><CENTER_NAME>EARTH</CENTER_NAME><REF_FRAME>TEME</REF_FRAME><TIME_SYSTEM>UTC</TIME_SYSTEM><MEAN_ELEMENT_THEORY>SGP4</MEAN_ELEMENT_THEORY></metadata><data><meanElements><EPOCH>2025-09-18T22:02:19.830912</EPOCH><MEAN_MOTION>14.81359415</MEAN_MOTION><ECCENTRICITY>.00099679</ECCENTRICITY><INCLINATION>51.8991</INCLINATION><RA_OF_ASC_NODE>160.6165</RA_OF_ASC_NODE><ARG_OF_PERICENTER>226.1935</ARG_OF_PERICENTER><MEAN_ANOMALY>133.8204</MEAN_ANOMALY></meanElements><tleParameters><EPHEMERIS_TYPE>0</EPHEMERIS_TYPE><CLASSIFICATION_TYPE>U</CLASSIFICATION_TYPE><NORAD_CAT_ID>63731</NORAD_CAT_ID><ELEMENT_SET_NO>999</ELEMENT_SET_NO><REV_AT_EPOCH>2222</REV_AT_EPOCH><BSTAR>-.22962027E-3</BSTAR><MEAN_MOTION_DOT>-.2039E-4</MEAN_MOTION_DOT><MEAN_MOTION_DDOT>0</MEAN_MOTION_DDOT></tleParameters></data></segment></body></omm>

</ndm>
